STARLINK-2590_new
1 18397C 21038AW  21326.15730521  .00005457  00000-0  36576-3 0  3268
2 18397  53.0536 183.0352 0001713  79.3345 149.0467 15.06379885    14
STARLINK-2590_old
1 28397C 21038AW  21325.09322942 -.00015924  00000-0 -10671-2 0  3252
2 28397  53.0542 187.8118 0001742  77.6748 137.0230 15.06405799    12
